PROGRESS-MS 19          
1 51660U 22014A   22047.69903051  .00104318  15175-4  31733-3 0  9995
2 51660  51.6419 213.4426 0027145 324.5531 147.4461 15.91271206   214
SL-4 R/B                
1 51661U 22014B   22047.74245370  .04289844  12277-4  58333-3 0  9992
2 51661  51.6548 212.8808 0017610  71.1875 118.1860 16.33904345   253
